{"type": "FeatureCollection", "features": [ {"type": "Feature", "properties": {"norad_id": 37717, "name": "FENGYUN 1C DEB", "group": "fengyun-1c-debris", "lat": 68.96001917469164, "lon": 147.70059412787163, "alt_km": 538.4545489599477, "timestamp": "2025-12-14T05:42:18.749908+00:00", "meta": {"OBJECT_NAME": "FENGYUN 1C DEB", "OBJECT_ID": "1999-025EMJ", "EPOCH": "2025-12-13T15:33:02.109312", "MEAN_MOTION": 14.94041675, "ECCENTRICITY": 0.0058628, "INCLINATION": 98.7254, "RA_OF_ASC_NODE": 303.5143, "ARG_OF_PERICENTER": 99.9726, "MEAN_ANOMALY": 78.8144, "EPHEMERIS_TYPE": 0, "CLASSIFICATION_TYPE": "U", "NORAD_CAT_ID": 37717, "ELEMENT_SET_NO": 999, "REV_AT_EPOCH": 89411, "BSTAR": 0.002780585, "MEAN_MOTION_DOT": 0.00030743, "MEAN_MOTION_DDOT": 0}, "tle": {"line1": "1 37717U 99025EMJ 25347.64794108  .00030743  00000+0  27806-2 0  9991", "line2": "2 37717  98.7254 303.5143 0058628  99.9726  78.8144 14.94041675894118"}}, "geometry": {"type": "Point", "coordinates": [147.70059412787163, 68.96001917469164]}}, {"type": "Feature", "properties": {"norad_id": 37902, "name": "FENGYUN 1C DEB", "group": "fengyun-1c-debris", "lat": -24.09713598752515, "lon": -147.77314461642754, "alt_km": 862.640064244767, "timestamp": "2025-12-14T05:42:18.749918+00:00", "meta": {"OBJECT_NAME": "FENGYUN 1C DEB", "OBJECT_ID": "1999-025ENB", "EPOCH": "2025-12-07T14:03:14.833440", "MEAN_MOTION": 13.52640367, "ECCENTRICITY": 0.03237878, "INCLINATION": 98.6837, "RA_OF_ASC_NODE": 202.4677, "ARG_OF_PERICENTER": 320.2654, "MEAN_ANOMALY": 37.5166, "EPHEMERIS_TYPE": 0, "CLASSIFICATION_TYPE": "U", "NORAD_CAT_ID": 37902, "ELEMENT_SET_NO": 999, "REV_AT_EPOCH": 62907, "BSTAR": 0.003775391, "MEAN_MOTION_DOT": 3.447e-05, "MEAN_MOTION_DDOT": 0}, "tle": {"line1": "1 37902U 99025ENB 25341.58558835  .00003447  00000+0  37754-2 0  9993", "line2": "2 37902  98.6837 202.4677 0323787 320.2654  37.5166 13.52640367629073"}}, "geometry": {"type": "Point", "coordinates": [-147.77314461642754, -24.09713598752515]}}, {"type": "Feature", "properties": {"norad_id": 37906, "name": "FENGYUN 1C DEB", "group": "fengyun-1c-debris", "lat": 57.556356231543184, "lon": -135.4326722972599, "alt_km": 967.0449388174648, "timestamp": "2025-12-14T05:42:18.749928+00:00", "meta": {"OBJECT_NAME": "FENGYUN 1C DEB", "OBJECT_ID": "1999-025ENF", "EPOCH": "2025-12-10T09:03:53.057088", "MEAN_MOTION": 13.80782296, "ECCENTRICITY": 0.01623387, "INCLINATION": 99.6029, "RA_OF_ASC_NODE": 25.2001, "ARG_OF_PERICENTER": 34.7127, "MEAN_ANOMALY": 347.1535, "EPHEMERIS_TYPE": 0, "CLASSIFICATION_TYPE": "U", "NORAD_CAT_ID": 37906, "ELEMENT_SET_NO": 999, "REV_AT_EPOCH": 59423, "BSTAR": 0.00082923409, "MEAN_MOTION_DOT": 9.18e-06, "MEAN_MOTION_DDOT": 0}, "tle": {"line1": "1 37906U 99025ENF 25344.37769742  .00000918  00000+0  82923-3 0  9997", "line2": "2 37906  99.6029  25.2001 0162338  34.7127 347.1535 13.80782296594236"}}, "geometry": {"type": "Point", "coordinates": [-135.4326722972599, 57.556356231543184]}}, {"type": "Feature", "properties": {"norad_id": 37907, "name": "FENGYUN 1C DEB", "group": "fengyun-1c-debris", "lat": -65.44546656200212, "lon": 121.75409726451512, "alt_km": 837.0027048239881, "timestamp": "2025-12-14T05:42:18.749938+00:00", "meta": {"OBJECT_NAME": "FENGYUN 1C DEB", "OBJECT_ID": "1999-025ENG", "EPOCH": "2025-12-11T13:55:19.191936", "MEAN_MOTION": 14.23531669, "ECCENTRICITY": 0.00636609, "INCLINATION": 99.0808, "RA_OF_ASC_NODE": 98.5214, "ARG_OF_PERICENTER": 188.9882, "MEAN_ANOMALY": 171.016, "EPHEMERIS_TYPE": 0, "CLASSIFICATION_TYPE": "U", "NORAD_CAT_ID": 37907, "ELEMENT_SET_NO": 999, "REV_AT_EPOCH": 83256, "BSTAR": 0.0046875695, "MEAN_MOTION_DOT": 0.0001086, "MEAN_MOTION_DDOT": 0}, "tle": {"line1": "1 37907U 99025ENG 25345.58008324  .00010860  00000+0  46876-2 0  9997", "line2": "2 37907  99.0808  98.5214 0063660 188.9882 171.0160 14.23531669832566"}}, "geometry": {"type": "Point", "coordinates": [121.75409726451512, -65.44546656200212]}}, {"type": "Feature", "properties": {"norad_id": 37908, "name": "FENGYUN 1C DEB", "group": "fengyun-1c-debris", "lat": 40.580742997101375, "lon": -151.83879800985616, "alt_km": 714.9106137847475, "timestamp": "2025-12-14T05:42:18.749949+00:00", "meta": {"OBJECT_NAME": "FENGYUN 1C DEB", "OBJECT_ID": "1999-025ENH", "EPOCH": "2025-12-06T19:52:32.356992", "MEAN_MOTION": 14.36573191, "ECCENTRICITY": 0.00744593, "INCLINATION": 99.1512, "RA_OF_ASC_NODE": 12.3562, "ARG_OF_PERICENTER": 174.8209, "MEAN_ANOMALY": 185.3763, "EPHEMERIS_TYPE": 0, "CLASSIFICATION_TYPE": "U", "NORAD_CAT_ID": 37908, "ELEMENT_SET_NO": 999, "REV_AT_EPOCH": 63976, "BSTAR": 0.0009644739, "MEAN_MOTION_DOT": 2.877e-05, "MEAN_MOTION_DDOT": 0}, "tle": {"line1": "1 37908U 99025ENH 25340.82815228  .00002877  00000+0  96447-3 0  9998", "line2": "2 37908  99.1512  12.3562 0074459 174.8209 185.3763 14.36573191639769"}}, "geometry": {"type": "Point", "coordinates": [-151.83879800985616, 40.580742997101375]}}, {"type": "Feature", "properties": {"norad_id": 37912, "name": "FENGYUN 1C DEB", "group": "fengyun-1c-debris", "lat": -10.515128401018641, "lon": -41.370599913127954, "alt_km": 831.281914531085, "timestamp": "2025-12-14T05:42:18.749960+00:00", "meta": {"OBJECT_NAME": "FENGYUN 1C DEB", "OBJECT_ID": "1999-025ENM", "EPOCH": "2025-12-07T08:43:49.203552", "MEAN_MOTION": 14.11418958, "ECCENTRICITY": 0.00911955, "INCLINATION": 99.2302, "RA_OF_ASC_NODE": 309.8335, "ARG_OF_PERICENTER": 74.9151, "MEAN_ANOMALY": 286.2087, "EPHEMERIS_TYPE": 0, "CLASSIFICATION_TYPE": "U", "NORAD_CAT_ID": 37912, "ELEMENT_SET_NO": 999, "REV_AT_EPOCH": 77212, "BSTAR": 0.0037768803, "MEAN_MOTION_DOT": 7.072e-05, "MEAN_MOTION_DDOT": 0}, "tle": {"line1": "1 37912U 99025ENM 25341.36376393  .00007072  00000+0  37769-2 0  9991", "line2": "2 37912  99.2302 309.8335 0091195  74.9151 286.2087 14.11418958772126"}}, "geometry": {"type": "Point", "coordinates": [-41.370599913127954, -10.515128401018641]}}, {"type": "Feature", "properties": {"norad_id": 37918, "name": "FENGYUN 1C DEB", "group": "fengyun-1c-debris", "lat": 27.628514080059947, "lon": 122.53811404607632, "alt_km": 799.7107117809755, "timestamp": "2025-12-14T05:42:18.749970+00:00", "meta": {"OBJECT_NAME": "FENGYUN 1C DEB", "OBJECT_ID": "1999-025ENT", "EPOCH": "2025-12-12T14:29:21.042528", "MEAN_MOTION": 14.34385023, "ECCENTRICITY": 0.00551873, "INCLINATION": 99.0279, "RA_OF_ASC_NODE": 296.0587, "ARG_OF_PERICENTER": 284.0571, "MEAN_ANOMALY": 75.4482, "EPHEMERIS_TYPE": 0, "CLASSIFICATION_TYPE": "U", "NORAD_CAT_ID": 37918, "ELEMENT_SET_NO": 999, "REV_AT_EPOCH": 3540, "BSTAR": 0.0012154208, "MEAN_MOTION_DOT": 3.431e-05, "MEAN_MOTION_DDOT": 0}, "tle": {"line1": "1 37918U 99025ENT 25346.60371577  .00003431  00000+0  12154-2 0  9994", "line2": "2 37918  99.0279 296.0587 0055187 284.0571  75.4482 14.34385023 35401"}}, "geometry": {"type": "Point", "coordinates": [122.53811404607632, 27.628514080059947]}}, {"type": "Feature", "properties": {"norad_id": 37919, "name": "FENGYUN 1C DEB", "group": "fengyun-1c-debris", "lat": -73.01586804916988, "lon": -42.27620768724595, "alt_km": 808.153902053783, "timestamp": "2025-12-14T05:42:18.749981+00:00", "meta": {"OBJECT_NAME": "FENGYUN 1C DEB", "OBJECT_ID": "1999-025ENU", "EPOCH": "2025-12-12T06:55:51.957984", "MEAN_MOTION": 14.2676163, "ECCENTRICITY": 0.00496798, "INCLINATION": 99.0576, "RA_OF_ASC_NODE": 284.2227, "ARG_OF_PERICENTER": 17.6806, "MEAN_ANOMALY": 342.6088, "EPHEMERIS_TYPE": 0, "CLASSIFICATION_TYPE": "U", "NORAD_CAT_ID": 37919, "ELEMENT_SET_NO": 999, "REV_AT_EPOCH": 64902, "BSTAR": 0.00082874062, "MEAN_MOTION_DOT": 1.986e-05, "MEAN_MOTION_DDOT": 0}, "tle": {"line1": "1 37919U 99025ENU 25346.28879581  .00001986  00000+0  82874-3 0  9997", "line2": "2 37919  99.0576 284.2227 0049679  17.6806 342.6088 14.26761630649025"}}, "geometry": {"type": "Point", "coordinates": [-42.27620768724595, -73.01586804916988]}}, {"type": "Feature", "properties": {"norad_id": 37921, "name": "FENGYUN 1C DEB", "group": "fengyun-1c-debris", "lat": 46.792758047093024, "lon": 19.544449018980206, "alt_km": 864.1793508483579, "timestamp": "2025-12-14T05:42:18.749991+00:00", "meta": {"OBJECT_NAME": "FENGYUN 1C DEB", "OBJECT_ID": "1999-025ENW", "EPOCH": "2025-12-12T08:43:43.070016", "MEAN_MOTION": 13.95155654, "ECCENTRICITY": 0.00843507, "INCLINATION": 99.0222, "RA_OF_ASC_NODE": 27.4497, "ARG_OF_PERICENTER": 99.7165, "MEAN_ANOMALY": 261.3537, "EPHEMERIS_TYPE": 0, "CLASSIFICATION_TYPE": "U", "NORAD_CAT_ID": 37921, "ELEMENT_SET_NO": 999, "REV_AT_EPOCH": 63142, "BSTAR": 0.00015923502, "MEAN_MOTION_DOT": 1.79e-06, "MEAN_MOTION_DDOT": 0}, "tle": {"line1": "1 37921U 99025ENW 25346.36369294  .00000179  00000+0  15924-3 0  9999", "line2": "2 37921  99.0222  27.4497 0084350  99.7165 261.3537 13.95155654631425"}}, "geometry": {"type": "Point", "coordinates": [19.544449018980206, 46.792758047093024]}}, {"type": "Feature", "properties": {"norad_id": 37925, "name": "FENGYUN 1C DEB", "group": "fengyun-1c-debris", "lat": -76.89679223227031, "lon": -98.97575671460268, "alt_km": 614.8125257366119, "timestamp": "2025-12-14T05:42:18.750001+00:00", "meta": {"OBJECT_NAME": "FENGYUN 1C DEB", "OBJECT_ID": "1999-025EPA", "EPOCH": "2025-12-13T08:58:34.737024", "MEAN_MOTION": 14.8031311, "ECCENTRICITY": 0.0056669, "INCLINATION": 99.0863, "RA_OF_ASC_NODE": 216.6117, "ARG_OF_PERICENTER": 341.0778, "MEAN_ANOMALY": 18.8324, "EPHEMERIS_TYPE": 0, "CLASSIFICATION_TYPE": "U", "NORAD_CAT_ID": 37925, "ELEMENT_SET_NO": 999, "REV_AT_EPOCH": 65692, "BSTAR": 0.0030609507, "MEAN_MOTION_DOT": 0.00023984, "MEAN_MOTION_DDOT": 0}, "tle": {"line1": "1 37925U 99025EPA 25347.37401316  .00023984  00000+0  30610-2 0  9994", "line2": "2 37925  99.0863 216.6117 0056669 341.0778  18.8324 14.80313110656925"}}, "geometry": {"type": "Point", "coordinates": [-98.97575671460268, -76.89679223227031]}}]}